IRIDIUM 26              
1 24903U 97043A   25201.95470774  .00000244  00000+0  75415-4 0  9999
2 24903  86.3945  96.4379 0002118  80.0197 280.1239 14.37165056461598
IRIDIUM 22              
1 24907U 97043E   25202.19119609  .00000245  00000+0  77713-4 0  9991
2 24907  86.3953  99.9084 0002092  85.3891 274.7545 14.35975262461643
DUMMY MASS 1            
1 24925U 97048A   25201.52596203  .00000321  00000+0  32664-4 0  9992
2 24925  86.3363 119.9199 0008122  43.9229 316.2640 14.87007420510083
DUMMY MASS 2            
1 24926U 97048B   25201.49366700  .00000326  00000+0  33360-4 0  9995
2 24926  86.3366 121.5482 0009222  51.9536 308.2520 14.86759300509854
IRIDIUM 29              
1 24944U 97051A   25201.85373314  .00000302  00000+0  96366-4 0  9997
2 24944  86.3985 129.7830 0002273  90.3685 269.7772 14.36488947458101
IRIDIUM 33              
1 24946U 97051C   25201.87251344  .00000247  00000+0  80042-4 0  9991
2 24946  86.3901 129.0383 0007119 344.9538  15.1445 14.34909284457576
IRIDIUM 28              
1 24948U 97051E   25201.87567073  .00000260  00000+0  80558-4 0  9999
2 24948  86.3988 127.2709 0002111  72.2877 287.8550 14.37404317458687
IRIDIUM 36              
1 24967U 97056C   25201.90335916  .00000310  00000+0  96617-4 0  9997
2 24967  86.4010 158.8449 0002021  85.7567 274.3861 14.37630162457067
